IRIDIUM 171             
1 43929U 19002H   24267.40739384  .00000339  00000+0  11401-3 0  9992
2 43929  86.3922 257.7948 0002552  93.6177 266.5311 14.34219862298405
IRIDIUM 170             
1 43930U 19002J   24267.47331290  .00001047  00000+0  16205-3 0  9999
2 43930  86.6042 257.5691 0002631  85.7519 274.3999 14.72259316306315
IRIDIUM 167             
1 43931U 19002K   24266.70336741  .00000050  00000+0  10759-4 0  9993
2 43931  86.3912 257.8698 0002360  92.1138 268.0328 14.34217858298305
IRIDIUM 181             
1 56726U 23068S   24267.46730257  .00000821  00000+0  23685-3 0  9997
2 56726  86.8628 316.0975 0002377  99.5765 260.5705 14.43580607 71312
IRIDIUM 177             
1 56727U 23068T   24266.97728499  .00001166  00000+0  15008-3 0  9991
2 56727  86.1915 268.9139 0002081  96.6682 263.4776 14.80207128 72844
IRIDIUM 174             
1 56728U 23068U   24267.51277586  .00001351  00000+0  17448-3 0  9995
2 56728  86.1924 268.7710 0002287  96.9419 263.2062 14.80193147 72927
IRIDIUM 178             
1 56729U 23068V   24267.50712927  .00001138  00000+0  14635-3 0  9996
2 56729  86.5730 290.9134 0002454  93.7309 266.4193 14.80235054 72927
IRIDIUM 179             
1 56730U 23068W   24267.16367699  .00002874  00000+0  37471-3 0  9993
2 56730  86.6746 296.4333 0001890  97.0105 263.1332 14.80238453 72872
